{
  "type": "FeatureCollection",
  "features": [
    {
      "type": "Feature",
      "properties": {
        "norad_id": 43783,
        "name": "KAZSTSAT",
        "group": "resource",
        "lat": 4.600983614334542,
        "lon": 29.811058033180903,
        "alt_km": 570.1329340559341,
        "timestamp": "2025-12-21T14:40:47.568433+00:00",
        "meta_object_name": "KAZSTSAT",
        "meta_object_id": "2018-099AB",
        "meta_epoch": "2025-12-21T01:50:44.888352",
        "meta_mean_motion": 14.99364891,
        "meta_eccentricity": 0.00060238,
        "meta_inclination": 97.4527,
        "meta_ra_of_asc_node": 29.903,
        "meta_arg_of_pericenter": 292.687,
        "meta_mean_anomaly": 67.3717,
        "meta_ephemeris_type": 0,
        "meta_classification_type": "U",
        "meta_norad_cat_id": 43783,
        "meta_element_set_no": 999,
        "meta_rev_at_epoch": 38461,
        "meta_bstar": 1.8043656e-05,
        "meta_mean_motion_dot": 1.65e-06,
        "meta_mean_motion_ddot": 0,
        "tle_line1": "1 43783U 18099AB  25355.07690843  .00000165  00000+0  18044-4 0  9991",
        "tle_line2": "2 43783  97.4527  29.9030 0006023 292.6870  67.3717 14.99364891384616"
      },
      "geometry": {
        "type": "Point",
        "coordinates": [
          29.811058033180903,
          4.600983614334542
        ]
      }
    },
    {
      "type": "Feature",
      "properties": {
        "norad_id": 43831,
        "name": "SAUDISAT 5A",
        "group": "resource",
        "lat": 2.1030703641582917,
        "lon": -124.09732423609977,
        "alt_km": 496.2360300517348,
        "timestamp": "2025-12-21T14:40:47.568443+00:00",
        "meta_object_name": "SAUDISAT 5A",
        "meta_object_id": "2018-102A",
        "meta_epoch": "2025-12-21T07:36:29.118816",
        "meta_mean_motion": 15.25753657,
        "meta_eccentricity": 0.00113485,
        "meta_inclination": 97.3341,
        "meta_ra_of_asc_node": 55.3427,
        "meta_arg_of_pericenter": 49.7933,
        "meta_mean_anomaly": 310.4297,
        "meta_ephemeris_type": 0,
        "meta_classification_type": "U",
        "meta_norad_cat_id": 43831,
        "meta_element_set_no": 999,
        "meta_rev_at_epoch": 38853,
        "meta_bstar": 0.00019333194,
        "meta_mean_motion_dot": 4.871e-05,
        "meta_mean_motion_ddot": 0,
        "tle_line1": "1 43831U 18102A   25355.31700369  .00004871  00000+0  19333-3 0  9991",
        "tle_line2": "2 43831  97.3341  55.3427 0011348  49.7933 310.4297 15.25753657388535"
      },
      "geometry": {
        "type": "Point",
        "coordinates": [
          -124.09732423609977,
          2.1030703641582917
        ]
      }
    },
    {
      "type": "Feature",
      "properties": {
        "norad_id": 43833,
        "name": "SAUDISAT 5B",
        "group": "resource",
        "lat": -60.27263663354352,
        "lon": -134.6667892861712,
        "alt_km": 502.81233861179044,
        "timestamp": "2025-12-21T14:40:47.568453+00:00",
        "meta_object_name": "SAUDISAT 5B",
        "meta_object_id": "2018-102C",
        "meta_epoch": "2025-12-21T05:45:31.973760",
        "meta_mean_motion": 15.2610155,
        "meta_eccentricity": 0.00120751,
        "meta_inclination": 97.3436,
        "meta_ra_of_asc_node": 58.021,
        "meta_arg_of_pericenter": 52.0559,
        "meta_mean_anomaly": 308.1769,
        "meta_ephemeris_type": 0,
        "meta_classification_type": "U",
        "meta_norad_cat_id": 43833,
        "meta_element_set_no": 999,
        "meta_rev_at_epoch": 38863,
        "meta_bstar": 0.00018134127,
        "meta_mean_motion_dot": 4.613e-05,
        "meta_mean_motion_ddot": 0,
        "tle_line1": "1 43833U 18102C   25355.23995340  .00004613  00000+0  18134-3 0  9991",
        "tle_line2": "2 43833  97.3436  58.0210 0012075  52.0559 308.1769 15.26101550388630"
      },
      "geometry": {
        "type": "Point",
        "coordinates": [
          -134.6667892861712,
          -60.27263663354352
        ]
      }
    },
    {
      "type": "Feature",
      "properties": {
        "norad_id": 44622,
        "name": "GAOFEN-10R",
        "group": "resource",
        "lat": -64.15669909235501,
        "lon": 106.20965854434274,
        "alt_km": 630.9793011865831,
        "timestamp": "2025-12-21T14:40:47.568464+00:00",
        "meta_object_name": "GAOFEN-10R",
        "meta_object_id": "2019-066A",
        "meta_epoch": "2025-12-21T07:05:55.066272",
        "meta_mean_motion": 14.8281884,
        "meta_eccentricity": 0.00072949,
        "meta_inclination": 98.029,
        "meta_ra_of_asc_node": 302.8358,
        "meta_arg_of_pericenter": 17.039,
        "meta_mean_anomaly": 343.1066,
        "meta_ephemeris_type": 0,
        "meta_classification_type": "U",
        "meta_norad_cat_id": 44622,
        "meta_element_set_no": 999,
        "meta_rev_at_epoch": 33601,
        "meta_bstar": 0.00015985959,
        "meta_mean_motion_dot": 1.239e-05,
        "meta_mean_motion_ddot": 0,
        "tle_line1": "1 44622U 19066A   25355.29577623  .00001239  00000+0  15986-3 0  9997",
        "tle_line2": "2 44622  98.0290 302.8358 0007294  17.0390 343.1066 14.82818840336019"
      },
      "geometry": {
        "type": "Point",
        "coordinates": [
          106.20965854434274,
          -64.15669909235501
        ]
      }
    },
    {
      "type": "Feature",
      "properties": {
        "norad_id": 44804,
        "name": "CARTOSAT-3",
        "group": "resource",
        "lat": 50.586783469748546,
        "lon": -115.74561712490578,
        "alt_km": 500.8911519839876,
        "timestamp": "2025-12-21T14:40:47.568474+00:00",
        "meta_object_name": "CARTOSAT-3",
        "meta_object_id": "2019-081A",
        "meta_epoch": "2025-12-21T06:12:45.003744",
        "meta_mean_motion": 15.19215132,
        "meta_eccentricity": 0.00137978,
        "meta_inclination": 97.4574,
        "meta_ra_of_asc_node": 54.7345,
        "meta_arg_of_pericenter": 56.5147,
        "meta_mean_anomaly": 303.7405,
        "meta_ephemeris_type": 0,
        "meta_classification_type": "U",
        "meta_norad_cat_id": 44804,
        "meta_element_set_no": 999,
        "meta_rev_at_epoch": 33645,
        "meta_bstar": 0.00010698039,
        "meta_mean_motion_dot": 2.188e-05,
        "meta_mean_motion_ddot": 0,
        "tle_line1": "1 44804U 19081A   25355.25885421  .00002188  00000+0  10698-3 0  9999",
        "tle_line2": "2 44804  97.4574  54.7345 0013797  56.5147 303.7405 15.19215132336454"
      },
      "geometry": {
        "type": "Point",
        "coordinates": [
          -115.74561712490578,
          50.586783469748546
        ]
      }
    },
    {
      "type": "Feature",
      "properties": {
        "norad_id": 44819,
        "name": "GAOFEN-12 01",
        "group": "resource",
        "lat": 80.02151702581789,
        "lon": -49.63345523185253,
        "alt_km": 620.2197299466607,
        "timestamp": "2025-12-21T14:40:47.568484+00:00",
        "meta_object_name": "GAOFEN-12 01",
        "meta_object_id": "2019-082A",
        "meta_epoch": "2025-12-21T06:11:36.262176",
        "meta_mean_motion": 14.80666682,
        "meta_eccentricity": 0.00018826,
        "meta_inclination": 97.8124,
        "meta_ra_of_asc_node": 1.3155,
        "meta_arg_of_pericenter": 192.0625,
        "meta_mean_anomaly": 168.0543,
        "meta_ephemeris_type": 0,
        "meta_classification_type": "U",
        "meta_norad_cat_id": 44819,
        "meta_element_set_no": 999,
        "meta_rev_at_epoch": 32776,
        "meta_bstar": 5.806089e-05,
        "meta_mean_motion_dot": 3.95e-06,
        "meta_mean_motion_ddot": 0,
        "tle_line1": "1 44819U 19082A   25355.25805859  .00000395  00000+0  58061-4 0  9998",
        "tle_line2": "2 44819  97.8124   1.3155 0001882 192.0625 168.0543 14.80666682327767"
      },
      "geometry": {
        "type": "Point",
        "coordinates": [
          -49.63345523185253,
          80.02151702581789
        ]
      }
    },
    {
      "type": "Feature",
      "properties": {
        "norad_id": 44873,
        "name": "CSG-1",
        "group": "resource",
        "lat": -61.39768027505814,
        "lon": -17.912989328810333,
        "alt_km": 630.6700041643107,
        "timestamp": "2025-12-21T14:40:47.568494+00:00",
        "meta_object_name": "CSG-1",
        "meta_object_id": "2019-092A",
        "meta_epoch": "2025-12-21T07:06:31.418208",
        "meta_mean_motion": 14.82151028,
        "meta_eccentricity": 0.00014723,
        "meta_inclination": 97.8803,
        "meta_ra_of_asc_node": 176.4914,
        "meta_arg_of_pericenter": 85.7889,
        "meta_mean_anomaly": 274.3493,
        "meta_ephemeris_type": 0,
        "meta_classification_type": "U",
        "meta_norad_cat_id": 44873,
        "meta_element_set_no": 999,
        "meta_rev_at_epoch": 32512,
        "meta_bstar": 6.5188782e-05,
        "meta_mean_motion_dot": 4.67e-06,
        "meta_mean_motion_ddot": 0,
        "tle_line1": "1 44873U 19092A   25355.29619697  .00000467  00000+0  65189-4 0  9995",
        "tle_line2": "2 44873  97.8803 176.4914 0001472  85.7889 274.3493 14.82151028325121"
      },
      "geometry": {
        "type": "Point",
        "coordinates": [
          -17.912989328810333,
          -61.39768027505814
        ]
      }
    }
  ]
}